{
  "type": "FeatureCollection",
  "features": [
    {
      "type": "Feature",
      "properties": {
        "norad_id": 33412,
        "name": "COSMO-SKYMED 3",
        "group": "resource",
        "lat": 78.19114674731362,
        "lon": 73.20843688108242,
        "alt_km": 532.0481689469852,
        "timestamp": "2025-12-27T07:26:24.877653+00:00",
        "meta_object_name": "COSMO-SKYMED 3",
        "meta_object_id": "2008-054A",
        "meta_epoch": "2025-12-26T23:01:38.417952",
        "meta_mean_motion": 15.05480283,
        "meta_eccentricity": 0.00171282,
        "meta_inclination": 97.845,
        "meta_ra_of_asc_node": 211.5922,
        "meta_arg_of_pericenter": 126.1106,
        "meta_mean_anomaly": 234.1709,
        "meta_ephemeris_type": 0,
        "meta_classification_type": "U",
        "meta_norad_cat_id": 33412,
        "meta_element_set_no": 999,
        "meta_rev_at_epoch": 93101,
        "meta_bstar": 0.00047591702,
        "meta_mean_motion_dot": 6.8e-05,
        "meta_mean_motion_ddot": 0,
        "tle_line1": "1 33412U 08054A   25360.95947243  .00006800  00000+0  47592-3 0  9992",
        "tle_line2": "2 33412  97.8450 211.5922 0017128 126.1106 234.1709 15.05480283931012"
      },
      "geometry": {
        "type": "Point",
        "coordinates": [
          73.20843688108242,
          78.19114674731362
        ]
      }
    },
    {
      "type": "Feature",
      "properties": {
        "norad_id": 33446,
        "name": "YAOGAN-4",
        "group": "resource",
        "lat": -29.201094842577415,
        "lon": -64.26998839025555,
        "alt_km": 621.9699742363691,
        "timestamp": "2025-12-27T07:26:24.877663+00:00",
        "meta_object_name": "YAOGAN-4",
        "meta_object_id": "2008-061A",
        "meta_epoch": "2025-12-26T18:36:57.311712",
        "meta_mean_motion": 14.82723581,
        "meta_eccentricity": 0.00129631,
        "meta_inclination": 97.9198,
        "meta_ra_of_asc_node": 290.7385,
        "meta_arg_of_pericenter": 273.4167,
        "meta_mean_anomaly": 86.5564,
        "meta_ephemeris_type": 0,
        "meta_classification_type": "U",
        "meta_norad_cat_id": 33446,
        "meta_element_set_no": 999,
        "meta_rev_at_epoch": 92011,
        "meta_bstar": 0.00019776049,
        "meta_mean_motion_dot": 1.545e-05,
        "meta_mean_motion_ddot": 0,
        "tle_line1": "1 33446U 08061A   25360.77566333  .00001545  00000+0  19776-3 0  9998",
        "tle_line2": "2 33446  97.9198 290.7385 0012963 273.4167  86.5564 14.82723581920118"
      },
      "geometry": {
        "type": "Point",
        "coordinates": [
          -64.26998839025555,
          -29.201094842577415
        ]
      }
    },
    {
      "type": "Feature",
      "properties": {
        "norad_id": 33492,
        "name": "GOSAT (IBUKI)",
        "group": "resource",
        "lat": -50.70041502910959,
        "lon": 119.70242432671562,
        "alt_km": 676.4861332947412,
        "timestamp": "2025-12-27T07:26:24.877673+00:00",
        "meta_object_name": "GOSAT (IBUKI)",
        "meta_object_id": "2009-002A",
        "meta_epoch": "2025-12-26T21:51:21.566592",
        "meta_mean_motion": 14.67552945,
        "meta_eccentricity": 0.00010507,
        "meta_inclination": 98.0771,
        "meta_ra_of_asc_node": 109.3172,
        "meta_arg_of_pericenter": 105.8098,
        "meta_mean_anomaly": 254.3223,
        "meta_ephemeris_type": 0,
        "meta_classification_type": "U",
        "meta_norad_cat_id": 33492,
        "meta_element_set_no": 999,
        "meta_rev_at_epoch": 90619,
        "meta_bstar": 0.00019470733,
        "meta_mean_motion_dot": 1.057e-05,
        "meta_mean_motion_ddot": 0,
        "tle_line1": "1 33492U 09002A   25360.91066628  .00001057  00000+0  19471-3 0  9993",
        "tle_line2": "2 33492  98.0771 109.3172 0001050 105.8098 254.3223 14.67552945906199"
      },
      "geometry": {
        "type": "Point",
        "coordinates": [
          119.70242432671562,
          -50.70041502910959
        ]
      }
    },
    {
      "type": "Feature",
      "properties": {
        "norad_id": 35681,
        "name": "DEIMOS-1",
        "group": "resource",
        "lat": 53.855196573132396,
        "lon": 150.53865740141453,
        "alt_km": 638.4709230251128,
        "timestamp": "2025-12-27T07:26:24.877716+00:00",
        "meta_object_name": "DEIMOS-1",
        "meta_object_id": "2009-041A",
        "meta_epoch": "2025-12-26T23:03:11.086272",
        "meta_mean_motion": 14.74975897,
        "meta_eccentricity": 0.00024101,
        "meta_inclination": 97.7159,
        "meta_ra_of_asc_node": 160.9028,
        "meta_arg_of_pericenter": 58.2641,
        "meta_mean_anomaly": 301.8803,
        "meta_ephemeris_type": 0,
        "meta_classification_type": "U",
        "meta_norad_cat_id": 35681,
        "meta_element_set_no": 999,
        "meta_rev_at_epoch": 88149,
        "meta_bstar": 0.00019641637,
        "meta_mean_motion_dot": 1.273e-05,
        "meta_mean_motion_ddot": 0,
        "tle_line1": "1 35681U 09041A   25360.96054498  .00001273  00000+0  19642-3 0  9995",
        "tle_line2": "2 35681  97.7159 160.9028 0002410  58.2641 301.8803 14.74975897881496"
      },
      "geometry": {
        "type": "Point",
        "coordinates": [
          150.53865740141453,
          53.855196573132396
        ]
      }
    },
    {
      "type": "Feature",
      "properties": {
        "norad_id": 35682,
        "name": "DUBAISAT-1",
        "group": "resource",
        "lat": -27.68302176707809,
        "lon": 135.99652094149363,
        "alt_km": 649.8692267595152,
        "timestamp": "2025-12-27T07:26:24.877740+00:00",
        "meta_object_name": "DUBAISAT-1",
        "meta_object_id": "2009-041B",
        "meta_epoch": "2025-12-26T21:47:45.041280",
        "meta_mean_motion": 14.74643955,
        "meta_eccentricity": 0.00092512,
        "meta_inclination": 97.9799,
        "meta_ra_of_asc_node": 131.3802,
        "meta_arg_of_pericenter": 263.3551,
        "meta_mean_anomaly": 96.6605,
        "meta_ephemeris_type": 0,
        "meta_classification_type": "U",
        "meta_norad_cat_id": 35682,
        "meta_element_set_no": 999,
        "meta_rev_at_epoch": 87970,
        "meta_bstar": 0.0002498486,
        "meta_mean_motion_dot": 1.617e-05,
        "meta_mean_motion_ddot": 0,
        "tle_line1": "1 35682U 09041B   25360.90816020  .00001617  00000+0  24985-3 0  9995",
        "tle_line2": "2 35682  97.9799 131.3802 0009251 263.3551  96.6605 14.74643955879707"
      },
      "geometry": {
        "type": "Point",
        "coordinates": [
          135.99652094149363,
          -27.68302176707809
        ]
      }
    },
    {
      "type": "Feature",
      "properties": {
        "norad_id": 35931,
        "name": "OCEANSAT-2",
        "group": "resource",
        "lat": -1.3199604026663823,
        "lon": -179.75884253737377,
        "alt_km": 909.6560944931871,
        "timestamp": "2025-12-27T07:26:24.877765+00:00",
        "meta_object_name": "OCEANSAT-2",
        "meta_object_id": "2009-051A",
        "meta_epoch": "2025-12-26T23:42:52.219296",
        "meta_mean_motion": 13.99623159,
        "meta_eccentricity": 0.00158579,
        "meta_inclination": 98.2218,
        "meta_ra_of_asc_node": 0.1428,
        "meta_arg_of_pericenter": 7.5492,
        "meta_mean_anomaly": 352.5911,
        "meta_ephemeris_type": 0,
        "meta_classification_type": "U",
        "meta_norad_cat_id": 35931,
        "meta_element_set_no": 999,
        "meta_rev_at_epoch": 85524,
        "meta_bstar": 5.7225097e-05,
        "meta_mean_motion_dot": 4.6e-07,
        "meta_mean_motion_ddot": 0,
        "tle_line1": "1 35931U 09051A   25360.98810439  .00000046  00000+0  57225-4 0  9998",
        "tle_line2": "2 35931  98.2218   0.1428 0015857   7.5492 352.5911 13.99623159855249"
      },
      "geometry": {
        "type": "Point",
        "coordinates": [
          -179.75884253737377,
          -1.3199604026663823
        ]
      }
    },
    {
      "type": "Feature",
      "properties": {
        "norad_id": 35946,
        "name": "WORLDVIEW-2 (WV-2)",
        "group": "resource",
        "lat": 40.547215593252595,
        "lon": -100.47553335589029,
        "alt_km": 763.6171200944118,
        "timestamp": "2025-12-27T07:26:24.877780+00:00",
        "meta_object_name": "WORLDVIEW-2 (WV-2)",
        "meta_object_id": "2009-055A",
        "meta_epoch": "2025-12-26T22:26:44.794752",
        "meta_mean_motion": 14.3773044,
        "meta_eccentricity": 0.00046226,
        "meta_inclination": 98.477,
        "meta_ra_of_asc_node": 71.8247,
        "meta_arg_of_pericenter": 35.3934,
        "meta_mean_anomaly": 324.756,
        "meta_ephemeris_type": 0,
        "meta_classification_type": "U",
        "meta_norad_cat_id": 35946,
        "meta_element_set_no": 999,
        "meta_rev_at_epoch": 85089,
        "meta_bstar": 8.2420492e-05,
        "meta_mean_motion_dot": 2.04e-06,
        "meta_mean_motion_ddot": 0,
        "tle_line1": "1 35946U 09055A   25360.93524068  .00000204  00000+0  82420-4 0  9994",
        "tle_line2": "2 35946  98.4770  71.8247 0004622  35.3934 324.7560 14.37730440850894"
      },
      "geometry": {
        "type": "Point",
        "coordinates": [
          -100.47553335589029,
          40.547215593252595
        ]
      }
    }
  ]
}